{
    "links": {
        "self": "http://www.neowsapp.com/rest/v1/neo/3840757?api_key=iIulBulltgU6a56xZRHN4H3l9WmuAYTsLGpBGhQ2"
    },
    "id": "3840757",
    "neo_reference_id": "3840757",
    "name": "(2019 FC3)",
    "designation": "2019 FC3",
    "nasa_jpl_url": "http://ssd.jpl.nasa.gov/sbdb.cgi?sstr=3840757",
    "absolute_magnitude_h": 22.5,
    "estimated_diameter": {
        "kilometers": {
            "estimated_diameter_min": 0.0840533402,
            "estimated_diameter_max": 0.1879489824
        },
        "meters": {
            "estimated_diameter_min": 84.0533402073,
            "estimated_diameter_max": 187.9489824394
        },
        "miles": {
            "estimated_diameter_min": 0.0522283081,
            "estimated_diameter_max": 0.1167860472
        },
        "feet": {
            "estimated_diameter_min": 275.7655606856,
            "estimated_diameter_max": 616.6305395464
        }
    },
    "is_potentially_hazardous_asteroid": false,
    "close_approach_data": [
        {
            "close_approach_date": "1966-02-18",
            "close_approach_date_full": "1966-Feb-18 18:26",
            "epoch_date_close_approach": -122016840000,
            "relative_velocity": {
                "kilometers_per_second": "5.7759275384",
                "kilometers_per_hour": "20793.3391382276",
                "miles_per_hour": "12920.1723106392"
            },
            "miss_distance": {
                "astronomical": "0.8812009541",
                "lunar": "342.7871711449",
                "kilometers": "131825785.775327767",
                "miles": "81912744.9363345046"
            },
            "orbiting_body": "Juptr"
        },
        {
            "close_approach_date": "1968-09-09",
            "close_approach_date_full": "1968-Sep-09 02:23",
            "epoch_date_close_approach": -41377020000,
            "relative_velocity": {
                "kilometers_per_second": "22.0155715623",
                "kilometers_per_hour": "79256.0576241482",
                "miles_per_hour": "49246.632027627"
            },
            "miss_distance": {
                "astronomical": "0.2081975822",
                "lunar": "80.9888594758",
                "kilometers": "31145914.836269914",
                "miles": "19353174.0606522532"
            },
            "orbiting_body": "Earth"
        },
        {
            "close_approach_date": "2013-08-09",
            "close_approach_date_full": "2013-Aug-09 23:20",
            "epoch_date_close_approach": 1376090400000,
            "relative_velocity": {
                "kilometers_per_second": "8.2832341544",
                "kilometers_per_hour": "29819.642955813",
                "miles_per_hour": "18528.7664799606"
            },
            "miss_distance": {
                "astronomical": "1.4154138576",
                "lunar": "550.5959906064",
                "kilometers": "211742898.265443312",
                "miles": "131570935.9567772256"
            },
            "orbiting_body": "Juptr"
        },
        {
            "close_approach_date": "2019-04-19",
            "close_approach_date_full": "2019-Apr-19 13:28",
            "epoch_date_close_approach": 1555680480000,
            "relative_velocity": {
                "kilometers_per_second": "18.9434582436",
                "kilometers_per_hour": "68196.4496768419",
                "miles_per_hour": "42374.6217450355"
            },
            "miss_distance": {
                "astronomical": "0.0818126341",
                "lunar": "31.8251146649",
                "kilometers": "12238995.800449367",
                "miles": "7604959.3437485846"
            },
            "orbiting_body": "Earth"
        }
    ],
    "orbital_data": {
        "orbit_id": "9",
        "orbit_determination_date": "2019-04-15 14:25:42",
        "first_observation_date": "2019-03-31",
        "last_observation_date": "2019-04-12",
        "data_arc_in_days": 12,
        "observations_used": 80,
        "orbit_uncertainty": "8",
        "minimum_orbit_intersection": ".0194358",
        "jupiter_tisserand_invariant": "3.023",
        "epoch_osculation": "2458580.5",
        "eccentricity": ".6919029425265931",
        "semi_major_axis": "2.597491230798085",
        "inclination": "2.362588154767723",
        "ascending_node_longitude": "7.265198554713251",
        "orbital_period": "1529.077725732926",
        "perihelion_distance": ".8002794050218679",
        "perihelion_argument": "267.9899411024673",
        "aphelion_distance": "4.394703056574301",
        "perihelion_time": "2458634.092207518574",
        "mean_anomaly": "347.3824630481495",
        "mean_motion": ".2354360369924575",
        "equinox": "J2000",
        "orbit_class": {
            "orbit_class_type": "APO",
            "orbit_class_description": "Near-Earth asteroid orbits which cross the Earth’s orbit similar to that of 1862 Apollo",
            "orbit_class_range": "a (semi-major axis) > 1.0 AU; q (perihelion) < 1.017 AU"
        }
    },
    "is_sentry_object": false
}